ADRAS-J                 
1 58992U 24034A   24231.85114900  .00007105  00000+0  64642-3 0  9993
2 58992  98.2165 207.7625 0042683 200.0742 159.8800 14.94838274 27227
